NORAD_CAT_ID,OBJECT_NAME,OBJECT_TYPE,EPOCH,MEAN_MOTION,ECCENTRICITY,INCLINATION,RA_OF_ASC_NODE,ARG_OF_PERICENTER,MEAN_ANOMALY,BSTAR,MEAN_MOTION_DOT,MEAN_MOTION_DDOT,TLE_LINE0,TLE_LINE1,TLE_LINE2,SEMIMAJOR_AXIS,PERIOD,APOGEE,PERIGEE,DECAYED
51879.0,STARLINK-3572,PAYLOAD,2024-06-18 13:35:44,15.08838673,0.0001465,53.2168,303.3647,87.5001,272.6159,0.0001437,2e-05,0.0,0 STARLINK-3572,1 51879U 22022AD  24170.56649160  .00002000  00000-0  14370-3 0  9999,2 51879  53.2168 303.3647 0001465  87.5001 272.6159 15.08838673128271,6917.884,95.438,540.763,538.736,0.0
51879.0,STARLINK-3572,PAYLOAD,2024-06-18 15:11:07,15.0884167,0.0001502,53.2146,303.0643,95.0118,265.1046,0.00019259,2.779e-05,0.0,0 STARLINK-3572,1 51879U 22022AD  24170.63272959  .00002779  00000-0  19259-3 0  9999,2 51879  53.2146 303.0643 0001502  95.0118 265.1046 15.08841670128289,6917.875,95.437,540.779,538.701,0.0
51879.0,STARLINK-3572,PAYLOAD,2024-06-19 02:18:49,15.08851323,0.0001267,53.2176,300.9854,90.3003,269.8135,0.00022014,3.218e-05,0.0,0 STARLINK-3572,1 51879U 22022AD  24171.09640327  .00003218  00000-0  22014-3 0  9990,2 51879  53.2176 300.9854 0001267  90.3003 269.8135 15.08851323128355,6917.846,95.437,540.587,538.834,0.0
51879.0,STARLINK-3572,PAYLOAD,2024-06-19 13:26:32,15.08834453,0.0001551,53.2176,298.9039,94.5318,265.5851,-5.1625e-05,-1.109e-05,0.0,0 STARLINK-3572,1 51879U 22022AD  24171.56009338 -.00001109  00000-0 -51625-4 0  9993,2 51879  53.2176 298.9039 0001551  94.5318 265.5851 15.08834453128428,6917.897,95.438,540.835,538.689,0.0
51879.0,STARLINK-3572,PAYLOAD,2024-06-19 15:01:55,15.08833576,0.0001563,53.2177,298.6079,88.0346,272.0825,-6.0124e-05,-1.245e-05,0.0,0 STARLINK-3572,1 51879U 22022AD  24171.62633440 -.00001245  00000-0 -60124-4 0  9992,2 51879  53.2177 298.6079 0001563  88.0346 272.0825 15.08833576128432,6917.9,95.438,540.846,538.684,0.0
51879.0,STARLINK-3572,PAYLOAD,2024-06-19 18:12:41,15.08836933,0.0001328,53.2209,298.0104,103.4025,256.7116,-1.4808e-06,-3.11e-06,0.0,0 STARLINK-3572,1 51879U 22022AD  24171.75881163 -.00000311  00000-0 -14808-5 0  9995,2 51879  53.2209 298.0104 0001328 103.4025 256.7116 15.08836933128450,6917.89,95.438,540.673,538.836,0.0
51879.0,STARLINK-3572,PAYLOAD,2024-06-20 14:52:42,15.08838855,0.0001328,53.2191,294.1454,99.5408,260.5734,4.2668e-05,3.91e-06,0.0,0 STARLINK-3572,1 51879U 22022AD  24172.61993334  .00000391  00000-0  42668-4 0  9995,2 51879  53.2191 294.1454 0001328  99.5408 260.5734 15.08838855128583,6917.884,95.438,540.668,538.83,0.0
51879.0,STARLINK-3572,PAYLOAD,2024-06-21 13:08:06,15.0883764,0.0001316,53.2187,289.9823,101.943,258.171,0.00019572,2.828e-05,0.0,0 STARLINK-3572,1 51879U 22022AD  24173.54729700  .00002828  00000-0  19572-3 0  9996,2 51879  53.2187 289.9823 0001316 101.9430 258.1710 15.08837640128724,6917.888,95.438,540.663,538.842,0.0
51879.0,STARLINK-3572,PAYLOAD,2024-06-21 14:43:29,15.08838934,0.0001212,53.2181,289.6849,98.7698,261.3431,0.00015813,2.23e-05,0.0,0 STARLINK-3572,1 51879U 22022AD  24173.61353632  .00002230  00000-0  15813-3 0  9992,2 51879  53.2181 289.6849 0001212  98.7698 261.3431 15.08838934128731,6917.884,95.438,540.587,538.91,0.0
51879.0,STARLINK-3572,PAYLOAD,2024-06-22 12:58:53,15.08837005,0.0001214,53.2182,285.5227,100.9282,259.1846,6.8471e-05,8.02e-06,0.0,0 STARLINK-3572,1 51879U 22022AD  24174.54089830  .00000802  00000-0  68471-4 0  9993,2 51879  53.2182 285.5227 0001214 100.9282 259.1846 15.08837005128872,6917.89,95.438,540.594,538.915,0.0
51879.0,STARLINK-3572,PAYLOAD,2024-06-22 16:09:39,15.08838354,0.0001233,53.2184,284.9282,101.3724,258.7407,7.9949e-05,9.85e-06,0.0,0 STARLINK-3572,1 51879U 22022AD  24174.67337777  .00000985  00000-0  79949-4 0  9997,2 51879  53.2184 284.9282 0001233 101.3724 258.7407 15.08838354128893,6917.885,95.438,540.603,538.897,0.0
51879.0,STARLINK-3572,PAYLOAD,2024-06-23 14:25:03,15.08841664,0.0001196,53.2188,280.7662,98.8249,261.2878,0.00013116,1.8e-05,0.0,0 STARLINK-3572,1 51879U 22022AD  24175.60073825  .00001800  00000-0  13116-3 0  9992,2 51879  53.2188 280.7662 0001196  98.8249 261.2878 15.08841664129039,6917.875,95.437,540.568,538.913,0.0
51879.0,STARLINK-3572,PAYLOAD,2024-06-23 16:00:26,15.08841742,0.0001145,53.2185,280.4688,92.3227,267.7897,0.00012945,1.773e-05,0.0,0 STARLINK-3572,1 51879U 22022AD  24175.66697847  .00001773  00000-0  12945-3 0  9992,2 51879  53.2185 280.4688 0001145  92.3227 267.7897 15.08841742129040,6917.875,95.437,540.532,538.948,0.0
51879.0,STARLINK-3572,PAYLOAD,2024-06-24 14:15:50,15.08843561,0.0001261,53.2182,276.3024,80.9135,279.2,0.00014513,2.023e-05,0.0,0 STARLINK-3572,1 51879U 22022AD  24176.59433648  .00002023  00000-0  14513-3 0  9994,2 51879  53.2182 276.3024 0001261  80.9135 279.2000 15.08843561129185,6917.87,95.437,540.607,538.862,0.0
51879.0,STARLINK-3572,PAYLOAD,2024-06-25 12:31:14,15.08841338,0.0001413,53.218,272.1402,71.7361,288.3785,4.6938e-05,4.59e-06,0.0,0 STARLINK-3572,1 51879U 22022AD  24177.52169876  .00000459  00000-0  46938-4 0  9995,2 51879  53.2180 272.1402 0001413  71.7361 288.3785 15.08841338129322,6917.876,95.437,540.719,538.764,0.0
51879.0,STARLINK-3572,PAYLOAD,2024-06-25 14:06:37,15.08842371,0.0001473,53.2184,271.8432,70.1005,290.0146,6.1784e-05,6.96e-06,0.0,0 STARLINK-3572,1 51879U 22022AD  24177.58793843  .00000696  00000-0  61784-4 0  9997,2 51879  53.2184 271.8432 0001473  70.1005 290.0146 15.08842371129339,6917.873,95.437,540.757,538.719,0.0
51879.0,STARLINK-3572,PAYLOAD,2024-06-26 10:46:38,15.08844818,0.0001609,53.2192,267.9783,65.4175,294.6985,0.0001081,1.433e-05,0.0,0 STARLINK-3572,1 51879U 22022AD  24178.44905658  .00001433  00000-0  10810-3 0  9995,2 51879  53.2192 267.9783 0001609  65.4175 294.6985 15.08844818129462,6917.866,95.437,540.844,538.618,0.0
51879.0,STARLINK-3572,PAYLOAD,2024-06-27 12:12:48,15.08844444,0.0001238,53.2164,263.2243,85.8832,274.2302,7.3895e-05,8.88e-06,0.0,0 STARLINK-3572,1 51879U 22022AD  24179.50889513  .00000888  00000-0  73895-4 0  9990,2 51879  53.2164 263.2243 0001238  85.8832 274.2302 15.08844444129625,6917.867,95.437,540.588,538.875,0.0
51879.0,STARLINK-3572,PAYLOAD,2024-06-28 12:03:35,15.08843482,0.0001445,53.2164,258.7606,94.2137,265.9021,0.00013288,1.828e-05,0.0,0 STARLINK-3572,1 51879U 22022AD  24180.50249535  .00001828  00000-0  13288-3 0  9990,2 51879  53.2164 258.7606 0001445  94.2137 265.9021 15.08843482129771,6917.87,95.437,540.734,538.735,0.0
51879.0,STARLINK-3572,PAYLOAD,2024-06-28 16:49:44,15.08851271,0.0001466,53.2164,257.8673,94.0852,266.0308,0.00019701,2.85e-05,0.0,0 STARLINK-3572,1 51879U 22022AD  24180.70121047  .00002850  00000-0  19701-3 0  9991,2 51879  53.2164 257.8673 0001466  94.0852 266.0308 15.08851271129809,6917.846,95.437,540.725,538.697,0.0
51879.0,STARLINK-3572,PAYLOAD,2024-06-29 11:54:23,15.08821362,0.000133,53.2164,254.3021,81.7632,278.351,-0.0001378,-2.479e-05,0.0,0 STARLINK-3572,1 51879U 22022AD  24181.49611052 -.00002479  00000-0 -13780-3 0  9998,2 51879  53.2164 254.3021 0001330  81.7632 278.3510 15.08821362129929,6917.937,95.439,540.722,538.882,0.0
51879.0,STARLINK-3572,PAYLOAD,2024-06-29 21:26:42,15.08826415,0.0001407,53.2165,252.5149,75.1408,284.9739,-3.3836e-05,-8.26e-06,0.0,0 STARLINK-3572,1 51879U 22022AD  24181.89355183 -.00000826  00000-0 -33836-4 0  9991,2 51879  53.2165 252.5149 0001407  75.1408 284.9739 15.08826415129980,6917.922,95.438,540.76,538.814,0.0
51879.0,STARLINK-3572,PAYLOAD,2024-06-30 05:23:38,15.08834324,0.0001221,53.2149,251.0278,72.1858,287.9267,5.9561e-05,6.6e-06,0.0,0 STARLINK-3572,1 51879U 22022AD  24182.22474934  .00000660  00000-0  59561-4 0  9992,2 51879  53.2149 251.0278 0001221  72.1858 287.9267 15.08834324130034,6917.898,95.438,540.607,538.918,0.0
51879.0,STARLINK-3572,PAYLOAD,2024-06-30 11:45:10,15.08847229,0.0001352,53.2157,249.8407,76.3167,283.7976,0.0005581,8.607e-05,0.0,0 STARLINK-3572,1 51879U 22022AD  24182.48970814  .00008607  00000-0  55810-3 0  9999,2 51879  53.2157 249.8407 0001352  76.3167 283.7976 15.08847229130079,6917.858,95.437,540.659,538.788,0.0
51879.0,STARLINK-3572,PAYLOAD,2024-06-30 21:17:29,15.08861911,0.0001343,53.2154,248.0557,67.9368,292.1766,0.0009107,0.00014244,0.0,0 STARLINK-3572,1 51879U 22022AD  24182.88714585  .00014244  00000-0  91070-3 0  9996,2 51879  53.2154 248.0557 0001343  67.9368 292.1766 15.08861911130134,6917.813,95.436,540.607,538.749,0.0
51879.0,STARLINK-3572,PAYLOAD,2024-07-01 11:35:57,15.0885015,0.0001362,53.2156,245.3802,73.5731,286.5411,0.00032908,4.955e-05,0.0,0 STARLINK-3572,1 51879U 22022AD  24183.48330563  .00004955  00000-0  32908-3 0  9996,2 51879  53.2156 245.3802 0001362  73.5731 286.5411 15.08850150130224,6917.849,95.437,540.657,538.772,0.0
51879.0,STARLINK-3572,PAYLOAD,2024-07-01 13:11:20,15.08854714,0.0001293,53.2155,245.0826,75.4106,284.703,0.00058746,9.078e-05,0.0,0 STARLINK-3572,1 51879U 22022AD  24183.54954472  .00009078  00000-0  58746-3 0  9993,2 51879  53.2155 245.0826 0001293  75.4106 284.7030 15.08854714130234,6917.835,95.437,540.595,538.806,0.0
51879.0,STARLINK-3572,PAYLOAD,2024-07-01 21:08:16,15.08853814,0.0001366,53.2151,243.5959,79.0726,281.042,0.0010187,0.00015968,0.0,0 STARLINK-3572,1 51879U 22022AD  24183.88074490  .00015968  00000-0  10187-2 0  9994,2 51879  53.2151 243.5959 0001366  79.0726 281.0420 15.08853814130287,6917.838,95.437,540.648,538.758,0.0
51879.0,STARLINK-3572,PAYLOAD,2024-07-02 13:02:07,15.08840748,0.0001192,53.2147,240.6223,89.5229,270.5899,0.00046876,7.18e-05,0.0,0 STARLINK-3572,1 51879U 22022AD  24184.54314608  .00007180  00000-0  46876-3 0  9998,2 51879  53.2147 240.6223 0001192  89.5229 270.5899 15.08840748130381,6917.878,95.438,540.568,538.918,0.0
51879.0,STARLINK-3572,PAYLOAD,2024-07-03 12:52:54,15.0884655,0.000136,53.2147,236.1633,79.0313,281.0832,0.00032419,4.876e-05,0.0,0 STARLINK-3572,1 51879U 22022AD  24185.53674572  .00004876  00000-0  32419-3 0  9994,2 51879  53.2147 236.1633 0001360  79.0313 281.0832 15.08846550130539,6917.86,95.437,540.666,538.785,0.0
